FENGYUN 1C DEB          
1 30993U 99025BCK 17345.94782718  .00000765  00000-0  40742-3 0  9993
2 30993  99.0203   6.7501 0023446 119.6181 306.3590 14.16326774554061
